"{\n    \"CCSDS_OMM_VERS\": \"2.0\",\n    \"COMMENT\": \"GENERATED VIA SPACE-TRACK.ORG API\",\n    \"CREATION_DATE\": \"2025-08-31T17:37:22\",\n    \"ORIGINATOR\": \"18 SPCS\",\n    \"OBJECT_NAME\": \"BEIDOU 3 IGSO-1\",\n    \"OBJECT_ID\": \"2019-023A\",\n    \"CENTER_NAME\": \"EARTH\",\n    \"REF_FRAME\": \"TEME\",\n    \"TIME_SYSTEM\": \"UTC\",\n    \"MEAN_ELEMENT_THEORY\": \"SGP4\",\n    \"EPOCH\": \"2025-08-31T08:02:31.884000\",\n    \"MEAN_MOTION\": \"1.0027570142\",\n    \"ECCENTRICITY\": \"0.0025007514\",\n    \"INCLINATION\": \"58.288428\",\n    \"RA_OF_ASC_NODE\": \"40.643259\",\n    \"ARG_OF_PERICENTER\": \"215.34415\",\n    \"MEAN_ANOMALY\": \"323.51311\",\n    \"EPHEMERIS_TYPE\": \"0\",\n    \"CLASSIFICATION_TYPE\": \"U\",\n    \"NORAD_CAT_ID\": \"44204\",\n    \"ELEMENT_SET_NO\": \"999\",\n    \"REV_AT_EPOCH\": \"430\",\n    \"BSTAR\": \"0\",\n    \"MEAN_MOTION_DOT\": \"-0.000001885343\",\n    \"MEAN_MOTION_DDOT\": \"0\",\n    \"TLE_LINE0\": \"0 BEIDOU 3 IGSO-1\",\n    \"TLE_LINE1\": \"1 44204U 19023A   25243.33509125 -.00000189  00000-0  00000-0 0  9992\",\n    \"TLE_LINE2\": \"2 44204  58.2884  40.6433 0025008 215.3442 323.5131  1.00275701  4305\",\n    \"SEMIMAJOR_AXIS\": \"42163.634\",\n    \"PERIOD\": \"1436.041\",\n    \"APOAPSIS\": \"35890.940\",\n    \"PERIAPSIS\": \"35680.058\",\n    \"OBJECT_TYPE\": \"PAYLOAD\",\n    \"DECAYED\": \"0\"\n}"